{
  "type": "FeatureCollection",
  "features": [
    {
      "type": "Feature",
      "properties": {
        "norad_id": 22490,
        "name": "SCD 1",
        "group": "resource",
        "lat": 5.7038112881960465,
        "lon": -20.0007471417905,
        "alt_km": 756.2259734044592,
        "timestamp": "2025-12-04T19:33:59.287782+00:00",
        "meta_object_name": "SCD 1",
        "meta_object_id": "1993-009B",
        "meta_epoch": "2025-12-04T06:46:56.038656",
        "meta_mean_motion": 14.45989701,
        "meta_eccentricity": 0.00417912,
        "meta_inclination": 24.9709,
        "meta_ra_of_asc_node": 330.8926,
        "meta_arg_of_pericenter": 235.0411,
        "meta_mean_anomaly": 239.7639,
        "meta_ephemeris_type": 0,
        "meta_classification_type": "U",
        "meta_norad_cat_id": 22490,
        "meta_element_set_no": 999,
        "meta_rev_at_epoch": 73287,
        "meta_bstar": 0.00018100932,
        "meta_mean_motion_dot": 8.49e-06,
        "meta_mean_motion_ddot": 0,
        "tle_line1": "1 22490U 93009B   25338.28259304  .00000849  00000+0  18101-3 0  9996",
        "tle_line2": "2 22490  24.9709 330.8926 0041791 235.0411 239.7639 14.45989701732873"
      },
      "geometry": {
        "type": "Point",
        "coordinates": [
          -20.0007471417905,
          5.7038112881960465
        ]
      }
    },
    {
      "type": "Feature",
      "properties": {
        "norad_id": 25397,
        "name": "TECHSAT 1B (GO-32)",
        "group": "resource",
        "lat": -56.174952077381995,
        "lon": 128.17716948380485,
        "alt_km": 819.1791483210627,
        "timestamp": "2025-12-04T19:33:59.287808+00:00",
        "meta_object_name": "TECHSAT 1B (GO-32)",
        "meta_object_id": "1998-043D",
        "meta_epoch": "2025-12-03T22:13:32.295072",
        "meta_mean_motion": 14.24373188,
        "meta_eccentricity": 0.0002221,
        "meta_inclination": 98.9913,
        "meta_ra_of_asc_node": 320.9351,
        "meta_arg_of_pericenter": 71.8261,
        "meta_mean_anomaly": 288.3159,
        "meta_ephemeris_type": 0,
        "meta_classification_type": "U",
        "meta_norad_cat_id": 25397,
        "meta_element_set_no": 999,
        "meta_rev_at_epoch": 42353,
        "meta_bstar": 0.00010215,
        "meta_mean_motion_dot": 1.9e-06,
        "meta_mean_motion_ddot": 0,
        "tle_line1": "1 25397U 98043D   25337.92606823  .00000190  00000+0  10215-3 0  9997",
        "tle_line2": "2 25397  98.9913 320.9351 0002221  71.8261 288.3159 14.24373188423536"
      },
      "geometry": {
        "type": "Point",
        "coordinates": [
          128.17716948380485,
          -56.174952077381995
        ]
      }
    },
    {
      "type": "Feature",
      "properties": {
        "norad_id": 25504,
        "name": "SCD 2",
        "group": "resource",
        "lat": 21.85541713977059,
        "lon": -109.81009283656134,
        "alt_km": 747.030179820933,
        "timestamp": "2025-12-04T19:33:59.287820+00:00",
        "meta_object_name": "SCD 2",
        "meta_object_id": "1998-060A",
        "meta_epoch": "2025-12-03T07:34:14.746944",
        "meta_mean_motion": 14.45414838,
        "meta_eccentricity": 0.0016689,
        "meta_inclination": 24.9937,
        "meta_ra_of_asc_node": 200.0088,
        "meta_arg_of_pericenter": 212.8278,
        "meta_mean_anomaly": 308.9112,
        "meta_ephemeris_type": 0,
        "meta_classification_type": "U",
        "meta_norad_cat_id": 25504,
        "meta_element_set_no": 999,
        "meta_rev_at_epoch": 43195,
        "meta_bstar": 0.00010911,
        "meta_mean_motion_dot": 5.73e-06,
        "meta_mean_motion_ddot": 0,
        "tle_line1": "1 25504U 98060A   25337.31544846  .00000573  00000+0  10911-3 0  9993",
        "tle_line2": "2 25504  24.9937 200.0088 0016689 212.8278 308.9112 14.45414838431958"
      },
      "geometry": {
        "type": "Point",
        "coordinates": [
          -109.81009283656134,
          21.85541713977059
        ]
      }
    },
    {
      "type": "Feature",
      "properties": {
        "norad_id": 25757,
        "name": "DLR-TUBSAT",
        "group": "resource",
        "lat": 18.297512311877078,
        "lon": -39.80253468029443,
        "alt_km": 727.2729842271674,
        "timestamp": "2025-12-04T19:33:59.287830+00:00",
        "meta_object_name": "DLR-TUBSAT",
        "meta_object_id": "1999-029B",
        "meta_epoch": "2025-12-03T21:59:10.893984",
        "meta_mean_motion": 14.52352412,
        "meta_eccentricity": 0.0013422,
        "meta_inclination": 98.6555,
        "meta_ra_of_asc_node": 322.1579,
        "meta_arg_of_pericenter": 220.596,
        "meta_mean_anomaly": 139.4235,
        "meta_ephemeris_type": 0,
        "meta_classification_type": "U",
        "meta_norad_cat_id": 25757,
        "meta_element_set_no": 999,
        "meta_rev_at_epoch": 40490,
        "meta_bstar": 8.1828e-05,
        "meta_mean_motion_dot": 2.85e-06,
        "meta_mean_motion_ddot": 0,
        "tle_line1": "1 25757U 99029B   25337.91609831  .00000285  00000+0  81828-4 0  9997",
        "tle_line2": "2 25757  98.6555 322.1579 0013422 220.5960 139.4235 14.52352412404904"
      },
      "geometry": {
        "type": "Point",
        "coordinates": [
          -39.80253468029443,
          18.297512311877078
        ]
      }
    },
    {
      "type": "Feature",
      "properties": {
        "norad_id": 25994,
        "name": "TERRA",
        "group": "resource",
        "lat": -18.193701228031696,
        "lon": -151.85111353590682,
        "alt_km": 694.9584894279496,
        "timestamp": "2025-12-04T19:33:59.287840+00:00",
        "meta_object_name": "TERRA",
        "meta_object_id": "1999-068A",
        "meta_epoch": "2025-12-04T07:28:15.157056",
        "meta_mean_motion": 14.60938149,
        "meta_eccentricity": 0.00034353,
        "meta_inclination": 97.9761,
        "meta_ra_of_asc_node": 30.3045,
        "meta_arg_of_pericenter": 114.7985,
        "meta_mean_anomaly": 314.3681,
        "meta_ephemeris_type": 0,
        "meta_classification_type": "U",
        "meta_norad_cat_id": 25994,
        "meta_element_set_no": 999,
        "meta_rev_at_epoch": 38115,
        "meta_bstar": 0.00022822242,
        "meta_mean_motion_dot": 1.073e-05,
        "meta_mean_motion_ddot": 0,
        "tle_line1": "1 25994U 99068A   25338.31128654  .00001073  00000+0  22822-3 0  9991",
        "tle_line2": "2 25994  97.9761  30.3045 0003435 114.7985 314.3681 14.60938149381154"
      },
      "geometry": {
        "type": "Point",
        "coordinates": [
          -151.85111353590682,
          -18.193701228031696
        ]
      }
    },
    {
      "type": "Feature",
      "properties": {
        "norad_id": 27004,
        "name": "MAROC-TUBSAT",
        "group": "resource",
        "lat": -66.83133549288868,
        "lon": -56.675548551726884,
        "alt_km": 993.9374862663044,
        "timestamp": "2025-12-04T19:33:59.287850+00:00",
        "meta_object_name": "MAROC-TUBSAT",
        "meta_object_id": "2001-056D",
        "meta_epoch": "2025-12-04T08:11:25.416096",
        "meta_mean_motion": 13.70252282,
        "meta_eccentricity": 0.00190966,
        "meta_inclination": 99.7912,
        "meta_ra_of_asc_node": 146.6392,
        "meta_arg_of_pericenter": 282.5,
        "meta_mean_anomaly": 149.4725,
        "meta_ephemeris_type": 0,
        "meta_classification_type": "U",
        "meta_norad_cat_id": 27004,
        "meta_element_set_no": 999,
        "meta_rev_at_epoch": 19950,
        "meta_bstar": 3.7447322e-05,
        "meta_mean_motion_dot": -1.4e-07,
        "meta_mean_motion_ddot": 0,
        "tle_line1": "1 27004U 01056D   25338.34126639 -.00000014  00000+0  37447-4 0  9994",
        "tle_line2": "2 27004  99.7912 146.6392 0019096 282.5000 149.4725 13.70252282199503"
      },
      "geometry": {
        "type": "Point",
        "coordinates": [
          -56.675548551726884,
          -66.83133549288868
        ]
      }
    },
    {
      "type": "Feature",
      "properties": {
        "norad_id": 27424,
        "name": "AQUA",
        "group": "resource",
        "lat": 47.34742304719039,
        "lon": -69.66667424305386,
        "alt_km": 682.9585380751514,
        "timestamp": "2025-12-04T19:33:59.287860+00:00",
        "meta_object_name": "AQUA",
        "meta_object_id": "2002-022A",
        "meta_epoch": "2025-12-04T08:33:04.320000",
        "meta_mean_motion": 14.6177843,
        "meta_eccentricity": 7.763e-05,
        "meta_inclination": 98.4025,
        "meta_ra_of_asc_node": 299.0998,
        "meta_arg_of_pericenter": 110.2594,
        "meta_mean_anomaly": 43.9931,
        "meta_ephemeris_type": 0,
        "meta_classification_type": "U",
        "meta_norad_cat_id": 27424,
        "meta_element_set_no": 999,
        "meta_rev_at_epoch": 25480,
        "meta_bstar": 0.00044137996,
        "meta_mean_motion_dot": 2.153e-05,
        "meta_mean_motion_ddot": 0,
        "tle_line1": "1 27424U 02022A   25338.35630000  .00002153  00000+0  44138-3 0  9996",
        "tle_line2": "2 27424  98.4025 299.0998 0000776 110.2594  43.9931 14.61778430254806"
      },
      "geometry": {
        "type": "Point",
        "coordinates": [
          -69.66667424305386,
          47.34742304719039
        ]
      }
    }
  ]
}